[{"OBJECT_NAME":"COSMOS 2251 DEB","OBJECT_ID":"1993-036BSA","EPOCH":"2026-03-28T11:23:09.945024","MEAN_MOTION":14.36179829,"ECCENTRICITY":0.0026136,"INCLINATION":74.0195,"RA_OF_ASC_NODE":113.9319,"ARG_OF_PERICENTER":183.8605,"MEAN_ANOMALY":176.235,"EPHEMERIS_TYPE":0,"CLASSIFICATION_TYPE":"U","NORAD_CAT_ID":38068,"ELEMENT_SET_NO":999,"REV_AT_EPOCH":68164,"BSTAR":0.00019884,"MEAN_MOTION_DOT":5.56e-6,"MEAN_MOTION_DDOT":0},{"OBJECT_NAME":"COSMOS 2251 DEB","OBJECT_ID":"1993-036BSM","EPOCH":"2026-03-28T10:26:32.246880","MEAN_MOTION":14.78885498,"ECCENTRICITY":0.01149895,"INCLINATION":73.937,"RA_OF_ASC_NODE":148.7128,"ARG_OF_PERICENTER":357.2263,"MEAN_ANOMALY":2.8258,"EPHEMERIS_TYPE":0,"CLASSIFICATION_TYPE":"U","NORAD_CAT_ID":38197,"ELEMENT_SET_NO":999,"REV_AT_EPOCH":87315,"BSTAR":0.0019920737,"MEAN_MOTION_DOT":0.00016413,"MEAN_MOTION_DDOT":0},{"OBJECT_NAME":"COSMOS 2251 DEB","OBJECT_ID":"1993-036BSP","EPOCH":"2026-03-25T18:00:26.915328","MEAN_MOTION":13.64976356,"ECCENTRICITY":0.03683308,"INCLINATION":73.9531,"RA_OF_ASC_NODE":252.9036,"ARG_OF_PERICENTER":159.2952,"MEAN_ANOMALY":202.3543,"EPHEMERIS_TYPE":0,"CLASSIFICATION_TYPE":"U","NORAD_CAT_ID":38199,"ELEMENT_SET_NO":999,"REV_AT_EPOCH":62427,"BSTAR":0.00075829754,"MEAN_MOTION_DOT":9.54e-6,"MEAN_MOTION_DDOT":0},{"OBJECT_NAME":"COSMOS 2251 DEB","OBJECT_ID":"1993-036BSY","EPOCH":"2026-03-28T20:06:25.837920","MEAN_MOTION":14.88855789,"ECCENTRICITY":0.00050424,"INCLINATION":74.0025,"RA_OF_ASC_NODE":227.4034,"ARG_OF_PERICENTER":298.4258,"MEAN_ANOMALY":190.5732,"EPHEMERIS_TYPE":0,"CLASSIFICATION_TYPE":"U","NORAD_CAT_ID":38208,"ELEMENT_SET_NO":999,"REV_AT_EPOCH":72735,"BSTAR":0.002913948,"MEAN_MOTION_DOT":0.00027401,"MEAN_MOTION_DDOT":0},{"OBJECT_NAME":"COSMOS 2251 DEB","OBJECT_ID":"1993-036BTC","EPOCH":"2026-03-17T21:59:27.418848","MEAN_MOTION":14.78360333,"ECCENTRICITY":0.0093657,"INCLINATION":74.0501,"RA_OF_ASC_NODE":249.8533,"ARG_OF_PERICENTER":290.8361,"MEAN_ANOMALY":68.2803,"EPHEMERIS_TYPE":0,"CLASSIFICATION_TYPE":"U","NORAD_CAT_ID":38212,"ELEMENT_SET_NO":999,"REV_AT_EPOCH":82716,"BSTAR":0.00025571506,"MEAN_MOTION_DOT":1.964e-5,"MEAN_MOTION_DDOT":0},{"OBJECT_NAME":"COSMOS 2251 DEB","OBJECT_ID":"1993-036BTL","EPOCH":"2026-03-28T18:11:17.127168","MEAN_MOTION":15.01659494,"ECCENTRICITY":0.00022987,"INCLINATION":74.0098,"RA_OF_ASC_NODE":213.4115,"ARG_OF_PERICENTER":254.6927,"MEAN_ANOMALY":105.4007,"EPHEMERIS_TYPE":0,"CLASSIFICATION_TYPE":"U","NORAD_CAT_ID":38220,"ELEMENT_SET_NO":999,"REV_AT_EPOCH":72957,"BSTAR":0.0028017812,"MEAN_MOTION_DOT":0.00036554,"MEAN_MOTION_DDOT":0},{"OBJECT_NAME":"COSMOS 2251 DEB","OBJECT_ID":"1993-036BTP","EPOCH":"2026-03-28T23:52:59.974176","MEAN_MOTION":14.39555399,"ECCENTRICITY":0.0081053,"INCLINATION":74.0098,"RA_OF_ASC_NODE":347.8932,"ARG_OF_PERICENTER":73.6907,"MEAN_ANOMALY":303.9472,"EPHEMERIS_TYPE":0,"CLASSIFICATION_TYPE":"U","NORAD_CAT_ID":38479,"ELEMENT_SET_NO":999,"REV_AT_EPOCH":66216,"BSTAR":0.0016612,"MEAN_MOTION_DOT":5.367e-5,"MEAN_MOTION_DDOT":0},{"OBJECT_NAME":"COSMOS 2251 DEB","OBJECT_ID":"1993-036BTR","EPOCH":"2026-03-22T14:29:04.166880","MEAN_MOTION":13.95341053,"ECCENTRICITY":0.0228465,"INCLINATION":73.9322,"RA_OF_ASC_NODE":194.8937,"ARG_OF_PERICENTER":115.5106,"MEAN_ANOMALY":246.9844,"EPHEMERIS_TYPE":0,"CLASSIFICATION_TYPE":"U","NORAD_CAT_ID":38481,"ELEMENT_SET_NO":999,"REV_AT_EPOCH":60453,"BSTAR":0.001396188,"MEAN_MOTION_DOT":2.329e-5,"MEAN_MOTION_DDOT":0},{"OBJECT_NAME":"COSMOS 2251 DEB","OBJECT_ID":"1993-036BTT","EPOCH":"2026-03-22T00:43:36.046848","MEAN_MOTION":14.29329916,"ECCENTRICITY":0.01142821,"INCLINATION":74.2614,"RA_OF_ASC_NODE":193.941,"ARG_OF_PERICENTER":269.6469,"MEAN_ANOMALY":89.1586,"EPHEMERIS_TYPE":0,"CLASSIFICATION_TYPE":"U","NORAD_CAT_ID":38483,"ELEMENT_SET_NO":999,"REV_AT_EPOCH":64896,"BSTAR":0.00097470596,"MEAN_MOTION_DOT":2.638e-5,"MEAN_MOTION_DDOT":0},{"OBJECT_NAME":"COSMOS 2251 DEB","OBJECT_ID":"1993-036BTW","EPOCH":"2026-03-29T00:40:05.248128","MEAN_MOTION":14.77375041,"ECCENTRICITY":0.0031452,"INCLINATION":73.9412,"RA_OF_ASC_NODE":355.8182,"ARG_OF_PERICENTER":123.0325,"MEAN_ANOMALY":252.5505,"EPHEMERIS_TYPE":0,"CLASSIFICATION_TYPE":"U","NORAD_CAT_ID":38486,"ELEMENT_SET_NO":999,"REV_AT_EPOCH":77002,"BSTAR":0.0024036,"MEAN_MOTION_DOT":0.00017243,"MEAN_MOTION_DDOT":0},{"OBJECT_NAME":"COSMOS 2251 DEB","OBJECT_ID":"1993-036BTX","EPOCH":"2026-03-28T11:55:42.057120","MEAN_MOTION":15.29621125,"ECCENTRICITY":0.0026242,"INCLINATION":73.9685,"RA_OF_ASC_NODE":170.2142,"ARG_OF_PERICENTER":309.1437,"MEAN_ANOMALY":50.7433,"EPHEMERIS_TYPE":0,"CLASSIFICATION_TYPE":"U","NORAD_CAT_ID":38487,"ELEMENT_SET_NO":999,"REV_AT_EPOCH":68410,"BSTAR":0.002408,"MEAN_MOTION_DOT":0.00070469,"MEAN_MOTION_DDOT":0},{"OBJECT_NAME":"COSMOS 2251 DEB","OBJECT_ID":"1993-036BUC","EPOCH":"2026-03-28T19:05:55.791168","MEAN_MOTION":14.95462694,"ECCENTRICITY":0.00398475,"INCLINATION":73.9967,"RA_OF_ASC_NODE":282.8018,"ARG_OF_PERICENTER":56.9143,"MEAN_ANOMALY":303.5856,"EPHEMERIS_TYPE":0,"CLASSIFICATION_TYPE":"U","NORAD_CAT_ID":39546,"ELEMENT_SET_NO":999,"REV_AT_EPOCH":66020,"BSTAR":0.0013950072,"MEAN_MOTION_DOT":0.0001568,"MEAN_MOTION_DDOT":0},{"OBJECT_NAME":"COSMOS 2251 DEB","OBJECT_ID":"1993-036BUD","EPOCH":"2026-03-28T22:37:34.032864","MEAN_MOTION":15.18081519,"ECCENTRICITY":0.0011747,"INCLINATION":74.0054,"RA_OF_ASC_NODE":158.6364,"ARG_OF_PERICENTER":290.162,"MEAN_ANOMALY":245.0652,"EPHEMERIS_TYPE":0,"CLASSIFICATION_TYPE":"U","NORAD_CAT_ID":39547,"ELEMENT_SET_NO":999,"REV_AT_EPOCH":65628,"BSTAR":0.0040281,"MEAN_MOTION_DOT":0.00083175,"MEAN_MOTION_DDOT":0},{"OBJECT_NAME":"COSMOS 2251 DEB","OBJECT_ID":"1993-036BUK","EPOCH":"2026-03-24T22:12:22.255776","MEAN_MOTION":14.0033102,"ECCENTRICITY":0.02087987,"INCLINATION":74.0294,"RA_OF_ASC_NODE":152.9458,"ARG_OF_PERICENTER":265.4823,"MEAN_ANOMALY":92.2434,"EPHEMERIS_TYPE":0,"CLASSIFICATION_TYPE":"U","NORAD_CAT_ID":39553,"ELEMENT_SET_NO":999,"REV_AT_EPOCH":77047,"BSTAR":0.00077843859,"MEAN_MOTION_DOT":1.366e-5,"MEAN_MOTION_DDOT":0},{"OBJECT_NAME":"COSMOS 2251 DEB","OBJECT_ID":"1993-036BUL","EPOCH":"2026-03-26T20:47:50.530848","MEAN_MOTION":15.25189642,"ECCENTRICITY":0.00127671,"INCLINATION":74.0069,"RA_OF_ASC_NODE":46.9599,"ARG_OF_PERICENTER":209.0281,"MEAN_ANOMALY":151.0211,"EPHEMERIS_TYPE":0,"CLASSIFICATION_TYPE":"U","NORAD_CAT_ID":39554,"ELEMENT_SET_NO":999,"REV_AT_EPOCH":65964,"BSTAR":0.0032306732,"MEAN_MOTION_DOT":0.00082158,"MEAN_MOTION_DDOT":0},{"OBJECT_NAME":"COSMOS 2251 DEB","OBJECT_ID":"1993-036BUN","EPOCH":"2026-03-29T04:02:03.992064","MEAN_MOTION":14.6263628,"ECCENTRICITY":0.0132163,"INCLINATION":73.9321,"RA_OF_ASC_NODE":42.2272,"ARG_OF_PERICENTER":134.0217,"MEAN_ANOMALY":227.1933,"EPHEMERIS_TYPE":0,"CLASSIFICATION_TYPE":"U","NORAD_CAT_ID":39583,"ELEMENT_SET_NO":999,"REV_AT_EPOCH":63334,"BSTAR":0.0017794,"MEAN_MOTION_DOT":0.00010245,"MEAN_MOTION_DDOT":0}]
