COSMOS 2251 DEB         
1 38068U 93036BSA 26087.47442066  .00000556  00000+0  19884-3 0  9990
2 38068  74.0195 113.9319 0026136 183.8605 176.2350 14.36179829681648
COSMOS 2251 DEB         
1 38197U 93036BSM 26087.43509545  .00016413  00000+0  19921-2 0  9995
2 38197  73.9370 148.7128 0114989 357.2263   2.8258 14.78885498873151
COSMOS 2251 DEB         
1 38199U 93036BSP 26084.75031152  .00000954  00000+0  75830-3 0  9998
2 38199  73.9531 252.9036 0368330 159.2952 202.3543 13.64976356624273
COSMOS 2251 DEB         
1 38208U 93036BSY 26087.83779905  .00027401  00000+0  29139-2 0  9992
2 38208  74.0025 227.4034 0005042 298.4258 190.5732 14.88855789727356
COSMOS 2251 DEB         
1 38212U 93036BTC 26076.91628957  .00001964  00000+0  25572-3 0  9998
2 38212  74.0501 249.8533 0093657 290.8361  68.2803 14.78360333827167
COSMOS 2251 DEB         
1 38220U 93036BTL 26087.75783712  .00036554  00000+0  28018-2 0  9992
2 38220  74.0098 213.4115 0002298 254.6927 105.4007 15.01659494729579
COSMOS 2251 DEB         
1 38479U 93036BTP 26087.99513859  .00005367  00000+0  16612-2 0  9992
2 38479  74.0098 347.8932 0081053  73.6907 303.9472 14.39555399662168
COSMOS 2251 DEB         
1 38481U 93036BTR 26081.60352045  .00002329  00000+0  13962-2 0  9995
2 38481  73.9322 194.8937 0228465 115.5106 246.9844 13.95341053604538
COSMOS 2251 DEB         
1 38483U 93036BTT 26081.03027832  .00002638  00000+0  97471-3 0  9998
2 38483  74.2614 193.9410 0114282 269.6469  89.1586 14.29329916648965
COSMOS 2251 DEB         
1 38486U 93036BTW 26088.02783852  .00017243  00000+0  24036-2 0  9992
2 38486  73.9412 355.8182 0031452 123.0325 252.5505 14.77375041770029
COSMOS 2251 DEB         
1 38487U 93036BTX 26087.49701455  .00070469  00000+0  24080-2 0  9990
2 38487  73.9685 170.2142 0026242 309.1437  50.7433 15.29621125684105
COSMOS 2251 DEB         
1 39546U 93036BUC 26087.79578462  .00015680  00000+0  13950-2 0  9998
2 39546  73.9967 282.8018 0039847  56.9143 303.5856 14.95462694660202
COSMOS 2251 DEB         
1 39547U 93036BUD 26087.94275501  .00083175  00000+0  40281-2 0  9995
2 39547  74.0054 158.6364 0011747 290.1620 245.0652 15.18081519656283
COSMOS 2251 DEB         
1 39553U 93036BUK 26083.92525759  .00001366  00000+0  77844-3 0  9997
2 39553  74.0294 152.9458 0208798 265.4823  92.2434 14.00331020770474
COSMOS 2251 DEB         
1 39554U 93036BUL 26085.86655707  .00082158  00000+0  32307-2 0  9992
2 39554  74.0069  46.9599 0012767 209.0281 151.0211 15.25189642659645
COSMOS 2251 DEB         
1 39583U 93036BUN 26088.16810176  .00010245  00000+0  17794-2 0  9994
2 39583  73.9321  42.2272 0132163 134.0217 227.1933 14.62636280633342
